CYGFM03                 
1 41891U 16078H   26079.42972243  .00020381  00000+0  28981-3 0  9996
2 41891  34.9404 100.3711 0004269  55.4911 304.6216 15.55398243515129
FENGYUN 3D              
1 43010U 17072A   26079.91229903 -.00000070  00000+0 -11117-4 0  9997
2 43010  99.0048  52.7781 0000995 344.5951  15.5194 14.19717491432462
NOAA 20 (JPSS-1)        
1 43013U 17073A   26079.82407233  .00000051  00000+0  45190-4 0  9990
2 43013  98.7705  20.1013 0001647 123.1235 237.0099 14.19538780431937
GOES 17                 
1 43226U 18022A   26079.46941683 -.00000179  00000+0  00000+0 0  9991
2 43226   0.7083  87.1459 0001658 230.5606 299.7828  1.00271400 29532
FENGYUN 2H              
1 43491U 18050A   26079.90441778 -.00000123  00000+0  00000+0 0  9994
2 43491   2.8009  80.1434 0001540 168.6740 334.2961  1.00271217 28553
METOP-C                 
1 43689U 18087A   26079.80188413  .00000094  00000+0  62647-4 0  9992
2 43689  98.6742 140.9850 0002128  84.4801 275.6619 14.21500418382277
GEO-KOMPSAT-2A          
1 43823U 18100A   26079.79776566 -.00000341  00000+0  00000+0 0  9994
2 43823   0.0481  10.2377 0001309  32.1040 191.4170  1.00274011 26746
METEOR-M2 2             
1 44387U 19038A   26079.87419006 -.00000058  00000+0 -51855-5 0  9999
2 44387  98.9099  65.8806 0000280 319.5100  40.6058 14.24337591348720
ARKTIKA-M 1             
1 47719U 21016A   26078.27172550 -.00000051  00000+0  00000+0 0  9995
2 47719  63.2131  70.5059 7250064 269.5381  15.1604  2.00617949 36981
FENGYUN 3E              
1 49008U 21062A   26079.90636935 -.00000019  00000+0  11886-4 0  9995
2 49008  98.7511  84.2943 0001747  21.1601 338.9647 14.19895457244052
GOES 18                 
1 51850U 22021A   26079.74520777  .00000099  00000+0  00000+0 0  9995
2 51850   0.0448  25.4551 0000541  27.7315 256.3614  1.00273215  5704
NOAA 21 (JPSS-2)        
1 54234U 22150A   26079.85865512  .00000056  00000+0  47382-4 0  9990
2 54234  98.7568  19.9973 0002775  86.7298 273.4195 14.19554866174015
METEOSAT-12 (MTG-I1)    
1 54743U 22170C   26079.84361254 -.00000005  00000+0  00000+0 0  9996
2 54743   0.7205  24.0069 0001861 286.9321 170.7681  1.00271138 12092
TIANMU-1 03             
1 55973U 23039A   26079.89400736  .00017911  00000+0  38689-3 0  9992
2 55973  97.5188 250.5958 0003812  70.6251 289.5409 15.44577473167196
TIANMU-1 04             
1 55974U 23039B   26079.84966883  .00017793  00000+0  37890-3 0  9999
2 55974  97.5121 249.7069 0004352  64.5682 295.6016 15.44997205167198
TIANMU-1 05             
1 55975U 23039C   26079.80624289  .00017263  00000+0  37378-3 0  9990
2 55975  97.5166 250.1521 0003862  89.0574 271.1116 15.44514772167165
TIANMU-1 06             
1 55976U 23039D   26079.84927565  .00017944  00000+0  38177-3 0  9992
2 55976  97.5177 250.7473 0004078  82.9943 277.1769 15.45024095167190
FENGYUN 3G              
1 56232U 23055A   26079.83414038  .00031681  00000+0  51265-3 0  9998
2 56232  49.9920  81.5887 0005530 341.6090  18.4676 15.52472380166277
METEOR-M2 3             
1 57166U 23091A   26079.84883225 -.00000001  00000+0  18388-4 0  9997
2 57166  98.6189 136.5940 0005017  73.9969 286.1762 14.24038746141942
TIANMU-1 07             
1 57399U 23101A   26079.84006182  .00007012  00000+0  25055-3 0  9992
2 57399  97.2699 132.5394 0004543 112.6806 247.4915 15.29124538148144
TIANMU-1 08             
1 57400U 23101B   26079.80859802  .00000258  00000+0  11645-4 0  9992
2 57400  97.2691 132.2883 0005912  98.2061 261.9850 15.29209963148136
TIANMU-1 09             
1 57401U 23101C   26078.61365741  .00005500  00000+0  19652-3 0  9995
2 57401  97.2650 130.5874 0005409 114.9753 245.2050 15.29221744147955
TIANMU-1 10             
1 57402U 23101D   26077.66550569  .00005873  00000+0  20876-3 0  9997
2 57402  97.2732 130.6151 0007268 109.5432 250.6594 15.29352723147804
FENGYUN 3F              
1 57490U 23111A   26079.82164119  .00000055  00000+0  46282-4 0  9994
2 57490  98.6902 151.4537 0001056  77.3829 282.7465 14.19921915136326
ARKTIKA-M 2             
1 58584U 23198A   26075.54158463  .00000175  00000+0  00000+0 0  9990
2 58584  63.2144 164.6554 6879650 267.7318  18.8593  2.00605989 16468
TIANMU-1 11             
1 58645U 23205A   26079.82264554  .00006208  00000+0  24391-3 0  9997
2 58645  97.3530 102.7929 0007724 326.8228  33.2525 15.26020416124046
TIANMU-1 12             
1 58646U 23205B   26079.85559270  .00006464  00000+0  25444-3 0  9997
2 58646  97.3517 102.6011 0005637 308.5243  51.5490 15.25950849124032
TIANMU-1 13             
1 58647U 23205C   26079.82054529  .00006402  00000+0  25167-3 0  9996
2 58647  97.3545 102.8105 0005664 283.9184  76.1424 15.26001339124021
TIANMU-1 14             
1 58648U 23205D   26079.80529383  .00006405  00000+0  25195-3 0  9994
2 58648  97.3480 102.0543 0006446 289.4034  70.6508 15.25976115124026
TIANMU-1 19             
1 58660U 23208A   26079.84849159  .00009660  00000+0  33462-3 0  9993
2 58660  97.4400 195.8495 0003776 263.9465  96.1345 15.30051599123811
TIANMU-1 20             
1 58661U 23208B   26079.82415972  .00009365  00000+0  31276-3 0  9997
2 58661  97.4340 196.3699 0005867 277.2652  82.7922 15.31238289123890
TIANMU-1 21             
1 58662U 23208C   26079.80794522  .00011167  00000+0  34940-3 0  9991
2 58662  97.4396 198.6706 0005776 270.3618  89.6962 15.33284150124016
TIANMU-1 22             
1 58663U 23208D   26079.86898050  .00009042  00000+0  31730-3 0  9992
2 58663  97.4395 195.8735 0002416 300.6282  59.4720 15.29652718123828
TIANMU-1 15             
1 58700U 24004A   26079.86855876  .00006598  00000+0  25947-3 0  9994
2 58700  97.4671 266.0935 0005845 306.0955  53.9741 15.25986141122306
TIANMU-1 16             
1 58701U 24004B   26079.85179061  .00006830  00000+0  26822-3 0  9991
2 58701  97.4613 265.3919 0004341 312.0665  48.0203 15.26022292122309
TIANMU-1 17             
1 58702U 24004C   26079.83386484  .00006529  00000+0  25630-3 0  9990
2 58702  97.4644 265.8329 0003580 315.2462  44.8487 15.26056927122296
TIANMU-1 18             
1 58703U 24004D   26079.81943311  .00006435  00000+0  25310-3 0  9998
2 58703  97.4662 266.0317 0002964 316.5641  43.5363 15.26000518122299
INSAT-3DS               
1 58990U 24033A   26077.82198649 -.00000154  00000+0  00000+0 0  9991
2 58990   0.0146 219.4744 0002115 145.8603 189.0117  1.00270722 46166
METEOR-M2 4             
1 59051U 24039A   26079.90394332  .00000019  00000+0  28284-4 0  9992
2 59051  98.6923  40.3552 0008147  68.3431 291.8614 14.22418883106710
GOES 19                 
1 60133U 24119A   26079.47650221 -.00000246  00000+0  00000+0 0  9992
2 60133   0.0426  10.5047 0000827  26.2173 237.6330  1.00270703  6079
FENGYUN 3H              
1 65815U 25219A   26079.81778704  .00000058  00000+0  47538-4 0  9993
2 65815  98.6700  22.3384 0001040  58.4577 301.6701 14.19935331 24845
OSCAR 7 (AO-7)          
1 07530U 74089B   26079.83197995 -.00000056  00000+0 -60678-4 0  9991
2 07530 101.9963  92.1419 0011916 300.4881 234.5109 12.53696596349444
PHASE 3B (AO-10)        
1 14129U 83058B   26079.50284256 -.00000028  00000+0  00000+0 0  9996
2 14129  25.9149 234.4273 6042862  91.1140 334.2492  2.05873296293663
UOSAT 2 (UO-11)         
1 14781U 84021B   26079.88464265  .00001214  00000+0  12980-3 0  9993
2 14781  97.7968  46.5076 0009058 111.5367 248.6817 14.90543264243972
LUSAT (LO-19)           
1 20442U 90005G   26079.29585138  .00000117  00000+0  58477-4 0  9994
2 20442  98.8928  98.6229 0012670 105.7470 254.5112 14.34092251889651
EYESAT A (AO-27)        
1 22825U 93061C   26079.47549491  .00000089  00000+0  50963-4 0  9998
2 22825  98.6960 146.8926 0008393   8.7623 351.3704 14.30916387694312
ITAMSAT (IO-26)         
1 22826U 93061D   26079.41135539  .00000104  00000+0  56137-4 0  9994
2 22826  98.6907 146.7369 0008566 351.9807   8.1238 14.31340816694614
RADIO ROSTO (RS15)      
1 23439U 94085A   26079.60428292 -.00000051  00000+0 -23473-3 0  9993
2 23439  64.8135  86.4788 0153062  19.9873 340.6960 11.27583814285918
JAS-2 (FO-29)           
1 24278U 96046B   26079.36683937 -.00000004  00000+0  34459-4 0  9990
2 24278  98.5363 300.3413 0349374 327.0576  30.9218 13.53269628461158
TECHSAT 1B (GO-32)      
1 25397U 98043D   26079.69814586  .00000060  00000+0  45983-4 0  9999
2 25397  99.0041  70.2413 0002304 101.4727 258.6710 14.24408990438734
ISS (ZARYA)             
1 25544U 98067A   26079.87218434  .00009590  00000+0  18573-3 0  9990
2 25544  51.6346  17.0785 0006366 213.2716 146.7873 15.48402839558062
PCSAT (NO-44)           
1 26931U 01043C   26079.52439788  .00000130  00000+0  79449-4 0  9999
2 26931  67.0492 113.5906 0006962 264.9508  95.0799 14.31917261277755
SAUDISAT 1C (SO-50)     
1 27607U 02058C   26079.61067117  .00001526  00000+0  19735-3 0  9991
2 27607  64.5527  42.9946 0075384 278.6581  80.5990 14.82826109251326
CUTE-1 (CO-55)          
1 27844U 03031E   26079.73374694  .00000309  00000+0  15264-3 0  9991
2 27844  98.6778  89.3957 0010755  83.8209 276.4195 14.24275010179086
CUBESAT XI-IV (CO-57)   
1 27848U 03031J   26079.46721623  .00000255  00000+0  13103-3 0  9993
2 27848  98.6806  88.9162 0010641 100.7159 259.5219 14.23568656178754
MOZHAETS 4 (RS22)       
1 27939U 03042A   26079.87303545  .00000650  00000+0  10883-3 0  9991
2 27939  98.3440 261.7464 0011128 182.8713 311.8795 14.73282032202542
CUBESAT XI-V            
1 28895U 05043F   26079.38553185  .00001541  00000+0  25140-3 0  9991
2 28895  98.2855 233.2132 0015196 125.4381 234.8247 14.72362546 88683
CUTE-1.7+APD II (CO-65) 
1 32785U 08021C   26079.85773508  .00005338  00000+0  34608-3 0  9995
2 32785  97.8225  59.5316 0008303 342.4121  17.6818 15.08518464971875
SEEDS II (CO-66)        
1 32791U 08021J   26079.71701538  .00020237  00000+0  70887-3 0  9995
2 32791  97.7523  73.6103 0000573 218.9940 141.1258 15.29520071973750
